{"meta": {"timestamp": "2022-03-18T15:00:06.841167Z", "stations_updated": "2022-02-05"}, "raw": "EHAM 181059Z 1812/1918 05010KT 9999 FEW030 BECMG 1907/1910 08012KT", "sanitized": "EHAM 181059Z 1812/1918 05010KT 9999 FEW030 BECMG 1907/1910 08012KT", "station": "EHAM", "time": {"repr": "181059Z", "dt": "2022-03-18T10:59:00Z"}, "remarks": "", "forecast": [{"altimeter": null, "clouds": [{"repr": "FEW030", "type": "FEW", "altitude": 30, "modifier": null, "direction": null}], "flight_rules": "VFR", "other": [], "visibility": {"repr": "9999", "value": 9999, "spoken": "nine nine nine nine"}, "wind_direction": {"repr": "050", "value": 50, "spoken": "zero five zero"}, "wind_gust": null, "wind_speed": {"repr": "10", "value": 10, "spoken": "one zero"}, "wx_codes": [], "end_time": {"repr": "1907", "dt": "2022-03-19T07:00:00Z"}, "icing": [], "probability": null, "raw": "1812/1918 05010KT 9999 FEW030", "sanitized": "1812/1918 05010KT 9999 FEW030", "start_time": {"repr": "1812", "dt": "2022-03-18T12:00:00Z"}, "transition_start": null, "turbulence": [], "type": "FROM", "wind_shear": null}, {"altimeter": null, "clouds": [], "flight_rules": "VFR", "other": [], "visibility": null, "wind_direction": {"repr": "080", "value": 80, "spoken": "zero eight zero"}, "wind_gust": null, "wind_speed": {"repr": "12", "value": 12, "spoken": "one two"}, "wx_codes": [], "end_time": {"repr": "1918", "dt": "2022-03-19T18:00:00Z"}, "icing": [], "probability": null, "raw": "BECMG 1907/1910 08012KT", "sanitized": "BECMG 1907/1910 08012KT", "start_time": {"repr": "1910", "dt": "2022-03-19T10:00:00Z"}, "transition_start": {"repr": "1907", "dt": "2022-03-19T07:00:00Z"}, "turbulence": [], "type": "BECMG", "wind_shear": null}], "start_time": {"repr": "1812", "dt": "2022-03-18T12:00:00Z"}, "end_time": {"repr": "1918", "dt": "2022-03-19T18:00:00Z"}, "max_temp": null, "min_temp": null, "alts": null, "temps": null, "remarks_info": null, "units": {"accumulation": "in", "altimeter": "hPa", "altitude": "ft", "temperature": "C", "visibility": "m", "wind_speed": "kt"}}