{"meta": {"timestamp": "2022-03-18T16:00:05.967190Z", "stations_updated": "2022-02-05"}, "altimeter": {"repr": "Q1043", "value": 1043, "spoken": "one zero four three"}, "clouds": [], "flight_rules": "VFR", "other": [], "visibility": {"repr": "CAVOK", "value": 9999, "spoken": "ceiling and visibility ok"}, "wind_direction": {"repr": "060", "value": 60, "spoken": "zero six zero"}, "wind_gust": null, "wind_speed": {"repr": "11", "value": 11, "spoken": "one one"}, "wx_codes": [], "raw": "EHAM 181555Z 06011KT 020V090 CAVOK 14/05 Q1043 NOSIG", "sanitized": "EHAM 181555Z 06011KT 020V090 CAVOK 14/05 Q1043 NOSIG", "station": "EHAM", "time": {"repr": "181555Z", "dt": "2022-03-18T15:55:00Z"}, "remarks": "NOSIG", "dewpoint": {"repr": "05", "value": 5, "spoken": "five"}, "relative_humidity": 0.5459838786631855, "remarks_info": {"maximum_temperature_6": null, "minimum_temperature_6": null, "pressure_tendency": null, "precip_36_hours": null, "precip_24_hours": null, "sunshine_minutes": null, "codes": [], "dewpoint_decimal": null, "maximum_temperature_24": null, "minimum_temperature_24": null, "precip_hourly": null, "sea_level_pressure": null, "snow_depth": null, "temperature_decimal": null}, "runway_visibility": [], "temperature": {"repr": "14", "value": 14, "spoken": "one four"}, "wind_variable_direction": [{"repr": "020", "value": 20, "spoken": "zero two zero"}, {"repr": "090", "value": 90, "spoken": "zero nine zero"}], "density_altitude": -1014, "pressure_altitude": -891, "units": {"accumulation": "in", "altimeter": "hPa", "altitude": "ft", "temperature": "C", "visibility": "m", "wind_speed": "kt"}}