{"meta": {"timestamp": "2022-03-18T13:30:05.514290Z", "stations_updated": "2022-02-05"}, "altimeter": {"repr": "Q1044", "value": 1044, "spoken": "one zero four four"}, "clouds": [{"repr": "FEW038", "type": "FEW", "altitude": 38, "modifier": null, "direction": null}], "flight_rules": "VFR", "other": [], "visibility": {"repr": "9999", "value": 9999, "spoken": "nine nine nine nine"}, "wind_direction": {"repr": "050", "value": 50, "spoken": "zero five zero"}, "wind_gust": null, "wind_speed": {"repr": "09", "value": 9, "spoken": "nine"}, "wx_codes": [], "raw": "EHAM 181325Z 05009KT 010V110 9999 FEW038 15/05 Q1044 NOSIG", "sanitized": "EHAM 181325Z 05009KT 010V110 9999 FEW038 15/05 Q1044 NOSIG", "station": "EHAM", "time": {"repr": "181325Z", "dt": "2022-03-18T13:25:00Z"}, "remarks": "NOSIG", "dewpoint": {"repr": "05", "value": 5, "spoken": "five"}, "relative_humidity": 0.5118082211891067, "remarks_info": {"maximum_temperature_6": null, "minimum_temperature_6": null, "pressure_tendency": null, "precip_36_hours": null, "precip_24_hours": null, "sunshine_minutes": null, "codes": [], "dewpoint_decimal": null, "maximum_temperature_24": null, "minimum_temperature_24": null, "precip_hourly": null, "sea_level_pressure": null, "snow_depth": null, "temperature_decimal": null}, "runway_visibility": [], "temperature": {"repr": "15", "value": 15, "spoken": "one five"}, "wind_variable_direction": [{"repr": "010", "value": 10, "spoken": "zero one zero"}, {"repr": "110", "value": 110, "spoken": "one one zero"}], "density_altitude": -923, "pressure_altitude": -920, "units": {"accumulation": "in", "altimeter": "hPa", "altitude": "ft", "temperature": "C", "visibility": "m", "wind_speed": "kt"}}