{
    "meta": {
        "timestamp": "2022-03-18T17:16:08.291369Z",
        "stations_updated": "2022-02-05"
    },
    "altimeter": {
        "repr": "Q1043",
        "value": 1043,
        "spoken": "one zero four three"
    },
    "clouds": [],
    "flight_rules": "VFR",
    "other": [],
    "visibility": {
        "repr": "CAVOK",
        "value": 9999,
        "spoken": "ceiling and visibility ok"
    },
    "wind_direction": {
        "repr": "040",
        "value": 40,
        "spoken": "zero four zero"
    },
    "wind_gust": null,
    "wind_speed": {
        "repr": "09",
        "value": 9,
        "spoken": "nine"
    },
    "wx_codes": [],
    "raw": "EHAM 181655Z 04009KT 010V070 CAVOK 13/06 Q1043 NOSIG",
    "sanitized": "EHAM 181655Z 04009KT 010V070 CAVOK 13/06 Q1043 NOSIG",
    "station": "EHAM",
    "time": {
        "repr": "181655Z",
        "dt": "2022-03-18T16:55:00Z"
    },
    "remarks": "NOSIG",
    "dewpoint": {
        "repr": "06",
        "value": 6,
        "spoken": "six"
    },
    "relative_humidity": 0.6246113292830792,
    "remarks_info": {
        "maximum_temperature_6": null,
        "minimum_temperature_6": null,
        "pressure_tendency": null,
        "precip_36_hours": null,
        "precip_24_hours": null,
        "sunshine_minutes": null,
        "codes": [],
        "dewpoint_decimal": null,
        "maximum_temperature_24": null,
        "minimum_temperature_24": null,
        "precip_hourly": null,
        "sea_level_pressure": null,
        "snow_depth": null,
        "temperature_decimal": null
    },
    "runway_visibility": [],
    "temperature": {
        "repr": "13",
        "value": 13,
        "spoken": "one three"
    },
    "wind_variable_direction": [
        {
            "repr": "010",
            "value": 10,
            "spoken": "zero one zero"
        },
        {
            "repr": "070",
            "value": 70,
            "spoken": "zero seven zero"
        }
    ],
    "density_altitude": -1134,
    "pressure_altitude": -891,
    "units": {
        "accumulation": "in",
        "altimeter": "hPa",
        "altitude": "ft",
        "temperature": "C",
        "visibility": "m",
        "wind_speed": "kt"
    }
}
