{"meta": {"timestamp": "2022-03-18T15:30:05.313217Z", "stations_updated": "2022-02-05"}, "altimeter": {"repr": "Q1043", "value": 1043, "spoken": "one zero four three"}, "clouds": [{"repr": "FEW046", "type": "FEW", "altitude": 46, "modifier": null, "direction": null}], "flight_rules": "VFR", "other": [], "visibility": {"repr": "9999", "value": 9999, "spoken": "nine nine nine nine"}, "wind_direction": {"repr": "050", "value": 50, "spoken": "zero five zero"}, "wind_gust": null, "wind_speed": {"repr": "11", "value": 11, "spoken": "one one"}, "wx_codes": [], "raw": "EHAM 181525Z 05011KT 360V080 9999 FEW046 14/04 Q1043 NOSIG", "sanitized": "EHAM 181525Z 05011KT 360V080 9999 FEW046 14/04 Q1043 NOSIG", "station": "EHAM", "time": {"repr": "181525Z", "dt": "2022-03-18T15:25:00Z"}, "remarks": "NOSIG", "dewpoint": {"repr": "04", "value": 4, "spoken": "four"}, "relative_humidity": 0.5090936599745359, "remarks_info": {"maximum_temperature_6": null, "minimum_temperature_6": null, "pressure_tendency": null, "precip_36_hours": null, "precip_24_hours": null, "sunshine_minutes": null, "codes": [], "dewpoint_decimal": null, "maximum_temperature_24": null, "minimum_temperature_24": null, "precip_hourly": null, "sea_level_pressure": null, "snow_depth": null, "temperature_decimal": null}, "runway_visibility": [], "temperature": {"repr": "14", "value": 14, "spoken": "one four"}, "wind_variable_direction": [{"repr": "360", "value": 360, "spoken": "three six zero"}, {"repr": "080", "value": 80, "spoken": "zero eight zero"}], "density_altitude": -1014, "pressure_altitude": -891, "units": {"accumulation": "in", "altimeter": "hPa", "altitude": "ft", "temperature": "C", "visibility": "m", "wind_speed": "kt"}}